NIMIQ 2                 
1 27632U 02062A   26094.22006716 -.00000067  00000+0  00000+0 0  9997
2 27632   9.2765  57.6623 0006605 318.0513 146.8571  1.00272644 43441
ANIK F2                 
1 28378U 04027A   26094.22551333 -.00000049  00000+0  00000+0 0  9998
2 28378   3.0946  80.4088 0004031 321.2544 120.9496  1.00271728 40529
ANIK F1R                
1 28868U 05036A   26094.08363944 -.00000074  00000+0  00000+0 0  9994
2 28868   4.1236  77.4851 0003211 312.1938  85.5289  1.00271996 45715
ANIK F3                 
1 31102U 07009A   26093.63591947 -.00000003  00000+0  00000+0 0  9999
2 31102   1.0050  84.7089 0002888 297.9476 279.5351  1.00273651 45816
NIMIQ 4                 
1 33373U 08044A   26094.20392137 -.00000221  00000+0  00000+0 0  9997
2 33373   0.0218 241.2366 0002052 141.7590 160.9169  1.00269785 64248
TELSTAR 11N             
1 34111U 09009A   26094.22197449  .00000000  00000+0  00000+0 0  9995
2 34111   0.0173 195.1482 0002558 172.5643 227.1910  1.00268672 45509
TERRESTAR-1             
1 35496U 09035A   26094.01161916 -.00000056  00000+0  00000+0 0  9990
2 35496   5.1231  48.8022 0002869 324.0899  72.6396  1.00273285 61395
NIMIQ 5                 
1 35873U 09050A   26094.23314004 -.00000257  00000+0  00000+0 0  9991
2 35873   0.0445  83.1771 0002920 295.0337 185.5675  1.00272565 60607
SKYTERRA 1              
1 37218U 10061A   26094.27653105 -.00000117  00000+0  00000+0 0  9997
2 37218   4.9691  50.8892 0002481   1.8279 138.1036  1.00272018 56459
TELSTAR 14R             
1 37602U 11021A   26094.23504671  .00000000  00000+0  00000+0 0  9990
2 37602   0.0189 217.3527 0002441 163.4455 193.3660  1.00268319 55091
NIMIQ 6                 
1 38342U 12026A   26094.23473738 -.00000174  00000+0  00000+0 0  9990
2 38342   0.0451  68.1529 0002601 304.8740 172.9236  1.00271852 49670
ANIK G1                 
1 39127U 13014A   26094.21651461 -.00000075  00000+0  00000+0 0  9999
2 39127   0.0419  84.8485 0002471 274.0270 164.2963  1.00272212 47516
TELSTAR 12V             
1 41036U 15068A   26094.17316646 -.00000119  00000+0  00000+0 0  9999
2 41036   0.0179 229.8360 0002643 141.3821 228.6097  1.00272474 37885
VIASAT-2                
1 42740U 17029A   26094.23366003 -.00000266  00000+0  00000+0 0  9993
2 42740   0.0200 257.6051 0000428 128.0893 181.0648  1.00272212 32462
LEO 1 (LEO VANTAGE 1)   
1 43113U 18004C   26094.27708409  .00006573  00000+0  45731-3 0  9996
2 43113  99.2457   2.9271 0350639 306.4073  50.5258 14.67460140426640
TELSTAR 19V             
1 43562U 18059A   26094.15044782 -.00000281  00000+0  00000+0 0  9995
2 43562   0.0205 170.2259 0001605 270.7967 102.5896  1.00270471 28402
TELSTAR 18V             
1 43611U 18069A   26094.25044443 -.00000294  00000+0  00000+0 0  9990
2 43611   0.0159 238.2614 0002192 135.0070  47.4456  1.00271659 27895
