[{"OBJECT_NAME":"NIMIQ 2","OBJECT_ID":"2002-062A","EPOCH":"2026-04-04T05:16:53.802624","MEAN_MOTION":1.00272644,"ECCENTRICITY":0.00066056,"INCLINATION":9.2765,"RA_OF_ASC_NODE":57.6623,"ARG_OF_PERICENTER":318.0513,"MEAN_ANOMALY":146.8571,"EPHEMERIS_TYPE":0,"CLASSIFICATION_TYPE":"U","NORAD_CAT_ID":27632,"ELEMENT_SET_NO":999,"REV_AT_EPOCH":4344,"BSTAR":0,"MEAN_MOTION_DOT":-6.7e-7,"MEAN_MOTION_DDOT":0},{"OBJECT_NAME":"ANIK F2","OBJECT_ID":"2004-027A","EPOCH":"2026-04-04T05:24:44.351712","MEAN_MOTION":1.00271728,"ECCENTRICITY":0.0004031,"INCLINATION":3.0946,"RA_OF_ASC_NODE":80.4088,"ARG_OF_PERICENTER":321.2544,"MEAN_ANOMALY":120.9496,"EPHEMERIS_TYPE":0,"CLASSIFICATION_TYPE":"U","NORAD_CAT_ID":28378,"ELEMENT_SET_NO":999,"REV_AT_EPOCH":4052,"BSTAR":0,"MEAN_MOTION_DOT":-4.9e-7,"MEAN_MOTION_DDOT":0},{"OBJECT_NAME":"ANIK F1R","OBJECT_ID":"2005-036A","EPOCH":"2026-04-04T02:00:26.447616","MEAN_MOTION":1.00271996,"ECCENTRICITY":0.00032118,"INCLINATION":4.1236,"RA_OF_ASC_NODE":77.4851,"ARG_OF_PERICENTER":312.1938,"MEAN_ANOMALY":85.5289,"EPHEMERIS_TYPE":0,"CLASSIFICATION_TYPE":"U","NORAD_CAT_ID":28868,"ELEMENT_SET_NO":999,"REV_AT_EPOCH":4571,"BSTAR":0,"MEAN_MOTION_DOT":-7.4e-7,"MEAN_MOTION_DDOT":0},{"OBJECT_NAME":"ANIK F3","OBJECT_ID":"2007-009A","EPOCH":"2026-04-03T15:15:43.442208","MEAN_MOTION":1.00273651,"ECCENTRICITY":0.0002888,"INCLINATION":1.005,"RA_OF_ASC_NODE":84.7089,"ARG_OF_PERICENTER":297.9476,"MEAN_ANOMALY":279.5351,"EPHEMERIS_TYPE":0,"CLASSIFICATION_TYPE":"U","NORAD_CAT_ID":31102,"ELEMENT_SET_NO":999,"REV_AT_EPOCH":4581,"BSTAR":0,"MEAN_MOTION_DOT":-3.0e-8,"MEAN_MOTION_DDOT":0},{"OBJECT_NAME":"NIMIQ 4","OBJECT_ID":"2008-044A","EPOCH":"2026-04-04T04:53:38.806368","MEAN_MOTION":1.00269785,"ECCENTRICITY":0.00020524,"INCLINATION":0.0218,"RA_OF_ASC_NODE":241.2366,"ARG_OF_PERICENTER":141.759,"MEAN_ANOMALY":160.9169,"EPHEMERIS_TYPE":0,"CLASSIFICATION_TYPE":"U","NORAD_CAT_ID":33373,"ELEMENT_SET_NO":999,"REV_AT_EPOCH":6424,"BSTAR":0,"MEAN_MOTION_DOT":-2.21e-6,"MEAN_MOTION_DDOT":0},{"OBJECT_NAME":"TELSTAR 11N","OBJECT_ID":"2009-009A","EPOCH":"2026-04-04T05:19:38.595936","MEAN_MOTION":1.00268672,"ECCENTRICITY":0.00025588,"INCLINATION":0.0173,"RA_OF_ASC_NODE":195.1482,"ARG_OF_PERICENTER":172.5643,"MEAN_ANOMALY":227.191,"EPHEMERIS_TYPE":0,"CLASSIFICATION_TYPE":"U","NORAD_CAT_ID":34111,"ELEMENT_SET_NO":999,"REV_AT_EPOCH":4550,"BSTAR":0,"MEAN_MOTION_DOT":0,"MEAN_MOTION_DDOT":0},{"OBJECT_NAME":"TERRESTAR-1","OBJECT_ID":"2009-035A","EPOCH":"2026-04-04T00:16:43.895424","MEAN_MOTION":1.00273285,"ECCENTRICITY":0.00028697,"INCLINATION":5.1231,"RA_OF_ASC_NODE":48.8022,"ARG_OF_PERICENTER":324.0899,"MEAN_ANOMALY":72.6396,"EPHEMERIS_TYPE":0,"CLASSIFICATION_TYPE":"U","NORAD_CAT_ID":35496,"ELEMENT_SET_NO":999,"REV_AT_EPOCH":6139,"BSTAR":0,"MEAN_MOTION_DOT":-5.6e-7,"MEAN_MOTION_DDOT":0},{"OBJECT_NAME":"NIMIQ 5","OBJECT_ID":"2009-050A","EPOCH":"2026-04-04T05:35:43.299456","MEAN_MOTION":1.00272565,"ECCENTRICITY":0.00029201,"INCLINATION":0.0445,"RA_OF_ASC_NODE":83.1771,"ARG_OF_PERICENTER":295.0337,"MEAN_ANOMALY":185.5675,"EPHEMERIS_TYPE":0,"CLASSIFICATION_TYPE":"U","NORAD_CAT_ID":35873,"ELEMENT_SET_NO":999,"REV_AT_EPOCH":6060,"BSTAR":0,"MEAN_MOTION_DOT":-2.57e-6,"MEAN_MOTION_DDOT":0},{"OBJECT_NAME":"SKYTERRA 1","OBJECT_ID":"2010-061A","EPOCH":"2026-04-04T06:38:12.282720","MEAN_MOTION":1.00272018,"ECCENTRICITY":0.00024815,"INCLINATION":4.9691,"RA_OF_ASC_NODE":50.8892,"ARG_OF_PERICENTER":1.8279,"MEAN_ANOMALY":138.1036,"EPHEMERIS_TYPE":0,"CLASSIFICATION_TYPE":"U","NORAD_CAT_ID":37218,"ELEMENT_SET_NO":999,"REV_AT_EPOCH":5645,"BSTAR":0,"MEAN_MOTION_DOT":-1.17e-6,"MEAN_MOTION_DDOT":0},{"OBJECT_NAME":"TELSTAR 14R","OBJECT_ID":"2011-021A","EPOCH":"2026-04-04T05:38:28.035744","MEAN_MOTION":1.00268319,"ECCENTRICITY":0.00024416,"INCLINATION":0.0189,"RA_OF_ASC_NODE":217.3527,"ARG_OF_PERICENTER":163.4455,"MEAN_ANOMALY":193.366,"EPHEMERIS_TYPE":0,"CLASSIFICATION_TYPE":"U","NORAD_CAT_ID":37602,"ELEMENT_SET_NO":999,"REV_AT_EPOCH":5509,"BSTAR":0,"MEAN_MOTION_DOT":0,"MEAN_MOTION_DDOT":0},{"OBJECT_NAME":"NIMIQ 6","OBJECT_ID":"2012-026A","EPOCH":"2026-04-04T05:38:01.309632","MEAN_MOTION":1.00271852,"ECCENTRICITY":0.00026016,"INCLINATION":0.0451,"RA_OF_ASC_NODE":68.1529,"ARG_OF_PERICENTER":304.874,"MEAN_ANOMALY":172.9236,"EPHEMERIS_TYPE":0,"CLASSIFICATION_TYPE":"U","NORAD_CAT_ID":38342,"ELEMENT_SET_NO":999,"REV_AT_EPOCH":4967,"BSTAR":0,"MEAN_MOTION_DOT":-1.74e-6,"MEAN_MOTION_DDOT":0},{"OBJECT_NAME":"ANIK G1","OBJECT_ID":"2013-014A","EPOCH":"2026-04-04T05:11:46.862304","MEAN_MOTION":1.00272212,"ECCENTRICITY":0.00024717,"INCLINATION":0.0419,"RA_OF_ASC_NODE":84.8485,"ARG_OF_PERICENTER":274.027,"MEAN_ANOMALY":164.2963,"EPHEMERIS_TYPE":0,"CLASSIFICATION_TYPE":"U","NORAD_CAT_ID":39127,"ELEMENT_SET_NO":999,"REV_AT_EPOCH":4751,"BSTAR":0,"MEAN_MOTION_DOT":-7.5e-7,"MEAN_MOTION_DDOT":0},{"OBJECT_NAME":"TELSTAR 12V","OBJECT_ID":"2015-068A","EPOCH":"2026-04-04T04:09:21.582144","MEAN_MOTION":1.00272474,"ECCENTRICITY":0.00026436,"INCLINATION":0.0179,"RA_OF_ASC_NODE":229.836,"ARG_OF_PERICENTER":141.3821,"MEAN_ANOMALY":228.6097,"EPHEMERIS_TYPE":0,"CLASSIFICATION_TYPE":"U","NORAD_CAT_ID":41036,"ELEMENT_SET_NO":999,"REV_AT_EPOCH":3788,"BSTAR":0,"MEAN_MOTION_DOT":-1.19e-6,"MEAN_MOTION_DDOT":0},{"OBJECT_NAME":"VIASAT-2","OBJECT_ID":"2017-029A","EPOCH":"2026-04-04T05:36:28.226592","MEAN_MOTION":1.00272212,"ECCENTRICITY":4.286e-5,"INCLINATION":0.02,"RA_OF_ASC_NODE":257.6051,"ARG_OF_PERICENTER":128.0893,"MEAN_ANOMALY":181.0648,"EPHEMERIS_TYPE":0,"CLASSIFICATION_TYPE":"U","NORAD_CAT_ID":42740,"ELEMENT_SET_NO":999,"REV_AT_EPOCH":3246,"BSTAR":0,"MEAN_MOTION_DOT":-2.66e-6,"MEAN_MOTION_DDOT":0},{"OBJECT_NAME":"LEO 1 (LEO VANTAGE 1)","OBJECT_ID":"2018-004C","EPOCH":"2026-04-04T06:39:00.065376","MEAN_MOTION":14.6746014,"ECCENTRICITY":0.03506397,"INCLINATION":99.2457,"RA_OF_ASC_NODE":2.9271,"ARG_OF_PERICENTER":306.4073,"MEAN_ANOMALY":50.5258,"EPHEMERIS_TYPE":0,"CLASSIFICATION_TYPE":"U","NORAD_CAT_ID":43113,"ELEMENT_SET_NO":999,"REV_AT_EPOCH":42664,"BSTAR":0.00045730554,"MEAN_MOTION_DOT":6.573e-5,"MEAN_MOTION_DDOT":0},{"OBJECT_NAME":"TELSTAR 19V","OBJECT_ID":"2018-059A","EPOCH":"2026-04-04T03:36:38.691648","MEAN_MOTION":1.00270471,"ECCENTRICITY":0.00016054,"INCLINATION":0.0205,"RA_OF_ASC_NODE":170.2259,"ARG_OF_PERICENTER":270.7967,"MEAN_ANOMALY":102.5896,"EPHEMERIS_TYPE":0,"CLASSIFICATION_TYPE":"U","NORAD_CAT_ID":43562,"ELEMENT_SET_NO":999,"REV_AT_EPOCH":2840,"BSTAR":0,"MEAN_MOTION_DOT":-2.81e-6,"MEAN_MOTION_DDOT":0},{"OBJECT_NAME":"TELSTAR 18V","OBJECT_ID":"2018-069A","EPOCH":"2026-04-04T06:00:38.398752","MEAN_MOTION":1.00271659,"ECCENTRICITY":0.00021923,"INCLINATION":0.0159,"RA_OF_ASC_NODE":238.2614,"ARG_OF_PERICENTER":135.007,"MEAN_ANOMALY":47.4456,"EPHEMERIS_TYPE":0,"CLASSIFICATION_TYPE":"U","NORAD_CAT_ID":43611,"ELEMENT_SET_NO":999,"REV_AT_EPOCH":2789,"BSTAR":0,"MEAN_MOTION_DOT":-2.94e-6,"MEAN_MOTION_DDOT":0}]
